SOYUZ-MS 28             
1 66664U 25275A   26015.27308478  .00009025  00000+0  16988-3 0  9992
2 66664  51.6333 336.4632 0007764  20.7339 339.3963 15.49304898548055
DUPLEX                  
1 66906U 98067XS  26015.28659882  .00019776  00000+0  32375-3 0  9991
2 66906  51.6321 335.8048 0002217  15.3034 344.8022 15.52489476  6826
1998-067XT              
1 66907U 98067XT  26015.36285347  .00056505  00000+0  78610-3 0  9995
2 66907  51.6303 334.8144 0003640  63.4013 296.7352 15.56404474  6847
1998-067XU              
1 66908U 98067XU  26015.10510943  .00047074  00000+0  65864-3 0  9999
2 66908  51.6308 336.0922 0003523  57.2563 302.8767 15.56329803  6809
SILVERSAT               
1 66909U 98067XV  26015.28901348  .00066110  00000+0  89451-3 0  9992
2 66909  51.6311 335.0704 0003743  70.5278 289.6118 15.57086287  6838
1998-067XW              
1 66910U 98067XW  26015.29063294  .00058743  00000+0  80797-3 0  9991
2 66910  51.6296 335.0795 0002517  43.9643 316.1548 15.56698967  6836
1998-067XX              
1 66911U 98067XX  26015.33923493  .00072185  00000+0  94695-3 0  9991
2 66911  51.6295 334.6547 0002626  65.3553 294.7713 15.57880704  6833
1998-067XY              
1 66912U 98067XY  26015.25351703  .00041459  00000+0  61161-3 0  9994
2 66912  51.6310 335.5836 0003463  45.0455 315.0816 15.54947389  6818
