CCSDS_OMM_VERS = 2.0
CREATION_DATE  = 
ORIGINATOR     = 

OBJECT_NAME    = SOYUZ-MS 28
OBJECT_ID      = 2025-275A
CENTER_NAME    = EARTH
REF_FRAME      = TEME
TIME_SYSTEM    = UTC
MEAN_ELEMENT_THEORY = SGP/SGP4

EPOCH          = 2026-01-15T06:33:14.524992
MEAN_MOTION    = 15.49304898
ECCENTRICITY   = .0007764
INCLINATION    = 51.6333
RA_OF_ASC_NODE = 336.4632
ARG_OF_PERICENTER = 20.7339
MEAN_ANOMALY   = 339.3963

EPHEMERIS_TYPE = 0
CLASSIFICATION_TYPE = U
NORAD_CAT_ID   = 66664
ELEMENT_SET_NO = 999
REV_AT_EPOCH   = 54805
BSTAR          = .16988E-3
MEAN_MOTION_DOT = .9025E-4
MEAN_MOTION_DDOT = 0

CCSDS_OMM_VERS = 2.0
CREATION_DATE  = 
ORIGINATOR     = 

OBJECT_NAME    = DUPLEX
OBJECT_ID      = 1998-067XS
CENTER_NAME    = EARTH
REF_FRAME      = TEME
TIME_SYSTEM    = UTC
MEAN_ELEMENT_THEORY = SGP/SGP4

EPOCH          = 2026-01-15T06:52:42.138048
MEAN_MOTION    = 15.52489476
ECCENTRICITY   = .0002217
INCLINATION    = 51.6321
RA_OF_ASC_NODE = 335.8048
ARG_OF_PERICENTER = 15.3034
MEAN_ANOMALY   = 344.8022

EPHEMERIS_TYPE = 0
CLASSIFICATION_TYPE = U
NORAD_CAT_ID   = 66906
ELEMENT_SET_NO = 999
REV_AT_EPOCH   = 682
BSTAR          = .32375E-3
MEAN_MOTION_DOT = .19776E-3
MEAN_MOTION_DDOT = 0

CCSDS_OMM_VERS = 2.0
CREATION_DATE  = 
ORIGINATOR     = 

OBJECT_NAME    = 1998-067XT
OBJECT_ID      = 1998-067XT
CENTER_NAME    = EARTH
REF_FRAME      = TEME
TIME_SYSTEM    = UTC
MEAN_ELEMENT_THEORY = SGP/SGP4

EPOCH          = 2026-01-15T08:42:30.539808
MEAN_MOTION    = 15.56404474
ECCENTRICITY   = .000364
INCLINATION    = 51.6303
RA_OF_ASC_NODE = 334.8144
ARG_OF_PERICENTER = 63.4013
MEAN_ANOMALY   = 296.7352

EPHEMERIS_TYPE = 0
CLASSIFICATION_TYPE = U
NORAD_CAT_ID   = 66907
ELEMENT_SET_NO = 999
REV_AT_EPOCH   = 684
BSTAR          = .7861E-3
MEAN_MOTION_DOT = .56505E-3
MEAN_MOTION_DDOT = 0

CCSDS_OMM_VERS = 2.0
CREATION_DATE  = 
ORIGINATOR     = 

OBJECT_NAME    = 1998-067XU
OBJECT_ID      = 1998-067XU
CENTER_NAME    = EARTH
REF_FRAME      = TEME
TIME_SYSTEM    = UTC
MEAN_ELEMENT_THEORY = SGP/SGP4

EPOCH          = 2026-01-15T02:31:21.454752
MEAN_MOTION    = 15.56329803
ECCENTRICITY   = .0003523
INCLINATION    = 51.6308
RA_OF_ASC_NODE = 336.0922
ARG_OF_PERICENTER = 57.2563
MEAN_ANOMALY   = 302.8767

EPHEMERIS_TYPE = 0
CLASSIFICATION_TYPE = U
NORAD_CAT_ID   = 66908
ELEMENT_SET_NO = 999
REV_AT_EPOCH   = 680
BSTAR          = .65864E-3
MEAN_MOTION_DOT = .47074E-3
MEAN_MOTION_DDOT = 0

CCSDS_OMM_VERS = 2.0
CREATION_DATE  = 
ORIGINATOR     = 

OBJECT_NAME    = SILVERSAT
OBJECT_ID      = 1998-067XV
CENTER_NAME    = EARTH
REF_FRAME      = TEME
TIME_SYSTEM    = UTC
MEAN_ELEMENT_THEORY = SGP/SGP4

EPOCH          = 2026-01-15T06:56:10.764672
MEAN_MOTION    = 15.57086287
ECCENTRICITY   = .0003743
INCLINATION    = 51.6311
RA_OF_ASC_NODE = 335.0704
ARG_OF_PERICENTER = 70.5278
MEAN_ANOMALY   = 289.6118

EPHEMERIS_TYPE = 0
CLASSIFICATION_TYPE = U
NORAD_CAT_ID   = 66909
ELEMENT_SET_NO = 999
REV_AT_EPOCH   = 683
BSTAR          = .89451E-3
MEAN_MOTION_DOT = .6611E-3
MEAN_MOTION_DDOT = 0

CCSDS_OMM_VERS = 2.0
CREATION_DATE  = 
ORIGINATOR     = 

OBJECT_NAME    = 1998-067XW
OBJECT_ID      = 1998-067XW
CENTER_NAME    = EARTH
REF_FRAME      = TEME
TIME_SYSTEM    = UTC
MEAN_ELEMENT_THEORY = SGP/SGP4

EPOCH          = 2026-01-15T06:58:30.686016
MEAN_MOTION    = 15.56698967
ECCENTRICITY   = .0002517
INCLINATION    = 51.6296
RA_OF_ASC_NODE = 335.0795
ARG_OF_PERICENTER = 43.9643
MEAN_ANOMALY   = 316.1548

EPHEMERIS_TYPE = 0
CLASSIFICATION_TYPE = U
NORAD_CAT_ID   = 66910
ELEMENT_SET_NO = 999
REV_AT_EPOCH   = 683
BSTAR          = .80797E-3
MEAN_MOTION_DOT = .58743E-3
MEAN_MOTION_DDOT = 0

CCSDS_OMM_VERS = 2.0
CREATION_DATE  = 
ORIGINATOR     = 

OBJECT_NAME    = 1998-067XX
OBJECT_ID      = 1998-067XX
CENTER_NAME    = EARTH
REF_FRAME      = TEME
TIME_SYSTEM    = UTC
MEAN_ELEMENT_THEORY = SGP/SGP4

EPOCH          = 2026-01-15T08:08:29.897952
MEAN_MOTION    = 15.57880704
ECCENTRICITY   = .0002626
INCLINATION    = 51.6295
RA_OF_ASC_NODE = 334.6547
ARG_OF_PERICENTER = 65.3553
MEAN_ANOMALY   = 294.7713

EPHEMERIS_TYPE = 0
CLASSIFICATION_TYPE = U
NORAD_CAT_ID   = 66911
ELEMENT_SET_NO = 999
REV_AT_EPOCH   = 683
BSTAR          = .94695E-3
MEAN_MOTION_DOT = .72185E-3
MEAN_MOTION_DDOT = 0

CCSDS_OMM_VERS = 2.0
CREATION_DATE  = 
ORIGINATOR     = 

OBJECT_NAME    = 1998-067XY
OBJECT_ID      = 1998-067XY
CENTER_NAME    = EARTH
REF_FRAME      = TEME
TIME_SYSTEM    = UTC
MEAN_ELEMENT_THEORY = SGP/SGP4

EPOCH          = 2026-01-15T06:05:03.871392
MEAN_MOTION    = 15.54947389
ECCENTRICITY   = .0003463
INCLINATION    = 51.6310
RA_OF_ASC_NODE = 335.5836
ARG_OF_PERICENTER = 45.0455
MEAN_ANOMALY   = 315.0816

EPHEMERIS_TYPE = 0
CLASSIFICATION_TYPE = U
NORAD_CAT_ID   = 66912
ELEMENT_SET_NO = 999
REV_AT_EPOCH   = 681
BSTAR          = .61161E-3
MEAN_MOTION_DOT = .41459E-3
MEAN_MOTION_DDOT = 0

